[{"OBJECT_NAME":"STARLINK-1556","OBJECT_ID":"2020-055G","EPOCH":"2026-03-10T00:00:02.999808","MEAN_MOTION":15.19594502,"ECCENTRICITY":0.00019373,"INCLINATION":53.1095,"RA_OF_ASC_NODE":124.8078,"ARG_OF_PERICENTER":90.9986,"MEAN_ANOMALY":131.2843,"EPHEMERIS_TYPE":0,"CLASSIFICATION_TYPE":"U","NORAD_CAT_ID":46033,"ELEMENT_SET_NO":999,"REV_AT_EPOCH":574,"BSTAR":0.005702776,"MEAN_MOTION_DOT":0.0012472,"MEAN_MOTION_DDOT":0},{"OBJECT_NAME":"TRANSPORTER-15 OBJECT K","OBJECT_ID":"2025-276K","EPOCH":"2026-03-09T18:17:24.455904","MEAN_MOTION":15.1897842,"ECCENTRICITY":0.00057003,"INCLINATION":97.4243,"RA_OF_ASC_NODE":143.9558,"ARG_OF_PERICENTER":6.9635,"MEAN_ANOMALY":353.1678,"EPHEMERIS_TYPE":0,"CLASSIFICATION_TYPE":"U","NORAD_CAT_ID":66675,"ELEMENT_SET_NO":999,"REV_AT_EPOCH":1532,"BSTAR":0.00057838565,"MEAN_MOTION_DOT":0.00012043,"MEAN_MOTION_DDOT":0}]
